OBJECT_NAME,OBJECT_ID,EPOCH,MEAN_MOTION,ECCENTRICITY,INCLINATION,RA_OF_ASC_NODE,ARG_OF_PERICENTER,MEAN_ANOMALY,EPHEMERIS_TYPE,CLASSIFICATION_TYPE,NORAD_CAT_ID,ELEMENT_SET_NO,REV_AT_EPOCH,BSTAR,MEAN_MOTION_DOT,MEAN_MOTION_DDOT
SAUDISAT 1C (SO-50),2002-058C,2026-06-14T07:45:18.812160,14.83041320,.00753336,64.5509,137.8468,263.0043,96.2490,0,U,27607,999,26403,.12618747E-3,.923E-5,0
SAUDISAT 2,2004-025F,2026-06-14T13:20:51.071424,14.56682577,.002369,98.5508,165.4700,306.7156,53.1865,0,U,28371,999,16536,.61487E-4,.226E-5,0
SAUDISAT 3,2007-012B,2026-06-14T14:33:30.347136,14.71424247,.0013504,98.1455,116.0055,232.6414,127.3564,0,U,31118,999,2736,.42776E-4,.214E-5,0
PISAT,2016-059B,2026-06-14T18:14:20.697792,14.68979729,.0028186,97.8179,166.3170,210.7259,149.2298,0,U,41784,999,51938,.13485E-3,.747E-5,0
FLYING LAPTOP,2017-042G,2026-06-14T20:27:35.536032,15.01133419,.0019511,97.4671,321.4751,129.3189,230.9769,0,U,42831,999,48610,.26239E-3,.3316E-4,0
SALSAT,2020-068K,2026-06-14T12:41:54.564000,15.29765944,.0008235,97.8843,168.4319,319.4661,40.5964,0,U,46495,999,31495,.24454E-3,.6973E-4,0
